[Satellite]
VERSION=1.1
NAME=DTUSAT
NICKNAME=DTUSAT
TLE1=1 27842U 03031C   11059.48577660  .00000069  00000-0  51912-4 0   559
TLE2=2 27842  98.6993  70.5159 0009862 125.4224 234.7843 14.21087923397581
